{"addresses":[{"id":1,"name":"Mallory Walsh","streetAddress":"65673 Hartmann Skyway","city":"Port Micheleton","state":"Nevada","zipCode":"10817","phone":"552.405.3025 x631"},{"id":2,"name":"Victor King","streetAddress":"0251 Kaley Mountains","city":"Lucilebury","state":"Colorado","zipCode":"52958","phone":"(310) 790-9573 x3577"},{"id":3,"name":"Shane Leffler","streetAddress":"114 Dariana Centers","city":"Elmhurst","state":"Missouri","zipCode":"91184","phone":"620-829-8147 x08216"},{"id":4,"name":"Katarina Bradtke","streetAddress":"2844 Wehner Unions","city":"Clovis","state":"Wyoming","zipCode":"40457","phone":"1-673-448-9790 x09197"},{"id":5,"name":"Ulises Sanford","streetAddress":"98564 Chaya Row","city":"Schroederland","state":"South Dakota","zipCode":"76012-9064","phone":"(628) 255-2751 x82405"},{"id":6,"name":"Ansley Kulas","streetAddress":"70858 Rowe Villages","city":"Logan","state":"Georgia","zipCode":"42506-4407","phone":"731.686.3317 x0346"},{"id":7,"name":"Andreanne Bayer","streetAddress":"903 Norberto Cliff","city":"Wolfburgh","state":"West Virginia","zipCode":"19730-6006","phone":"1-664-429-3617 x736"},{"id":8,"name":"Patrick Douglas","streetAddress":"123 Champlin Centers","city":"New Citlalliside","state":"Hawaii","zipCode":"08580","phone":"232.983.7606"},{"id":9,"name":"Angus Murphy","streetAddress":"3172 Tromp Path","city":"Medhurststad","state":"New Jersey","zipCode":"45801-8766","phone":"256-620-8607"},{"id":10,"name":"Ladarius Cruickshank","streetAddress":"709 Wintheiser Plains","city":"Glen Burnie","state":"South Dakota","zipCode":"10604-4351","phone":"(763) 225-1976 x308"},{"id":11,"name":"Rene Jacobi","streetAddress":"37261 Fiona Green","city":"Ellenview","state":"Ohio","zipCode":"76205-4044","phone":"844.937.4813"},{"id":12,"name":"Rahsaan Russel","streetAddress":"22008 Rau Court","city":"Pacochaside","state":"California","zipCode":"42418-2595","phone":"723-371-0538"},{"id":13,"name":"Marc Kihn","streetAddress":"31532 Bogan Crest","city":"Oakland Park","state":"Virginia","zipCode":"04424-0313","phone":"232-952-2125"},{"id":14,"name":"Lela Jones","streetAddress":"0178 Waelchi Fords","city":"Dale City","state":"North Dakota","zipCode":"39469","phone":"(822) 729-5832 x73714"},{"id":15,"name":"Godfrey Prohaska","streetAddress":"48126 McGlynn Mills","city":"Port Nelle","state":"Washington","zipCode":"14522-7619","phone":"(739) 762-9596"}]}
